# FY3D (LEO)
1 43010U 17072A   26188.86691772 -.00000282  00000+0 -11139-3 0  9997
2 43010  99.0141 163.6638 0001914  28.8509 331.2772 14.19742396447921

# FY3E (LEO)
1 49008U 21062A   26188.84849505  .00000065  00000+0  51398-4 0  9990
2 49008  98.7501 192.0261 0002512  52.0138 308.1265 14.19906013259514

# FY3F (LEO)
1 57490U 23111A   26188.83191861  .00000013  00000+0  26540-4 0  9999
2 57490  98.6828 258.4552 0001404  79.9133 280.2201 14.19942632151799

# FY3G (LEO)
1 56232U 23055A   26188.69506436  .00015570  00000+0  24641-3 0  9994
2 56232  49.9916 240.2815 0007222  22.5556 337.5727 15.53556033183190

# C2E1 (LEO)
1 44349U 19036L   26188.44966248  .00001907  00000+0  13752-3 0  9998
2 44349  23.9977 255.7846 0001118  67.7742 292.2877 14.96594593387699

# C2E2 (LEO)
1 44351U 19036N   26186.89442351  .00003235  00000+0  25139-3 0  9990
2 44351  23.9998  22.6902 0000890  55.3635 304.6950 14.96582619386391

# C2E3 (LEO)
1 44343U 19036E   26187.94343676  .00003789  00000+0  20670-3 0  9997
2 44343  23.9999  42.5518 0000830 126.1855 233.8725 15.09951949386239

# C2E4 (LEO)
1 44350U 19036M   26188.47223975  .00002187  00000+0  16146-3 0  9997
2 44350  23.9993 317.7392 0001543  71.5964 288.4705 14.96590856387117

# C2E5 (LEO)
1 44358U 19036V   26188.13816422  .00002309  00000+0  17207-3 0  9998
2 44358  23.9969 133.8652 0000602  96.0147 264.0422 14.96569224385348

# C2E6 (LEO)
1 44353U 19036Q   26188.36085028  .00001939  00000+0  14020-3 0  9996
2 44353  23.9964 193.6160 0000948 357.2209   2.8286 14.96592910384848

# G01 (GNSS)
1 62339U 24242A   26180.81572751 -.00000094  00000+0  00000+0 0  9992
2 62339  54.8437 333.6698 0017626   4.4449   3.3802  2.00572141 11517

# G02 (GNSS)
1 28474U 04045A   26188.74244983 -.00000072  00000+0  00000+0 0  9992
2 28474  55.1231 324.0687 0170057 316.8842  42.3770  2.00556754158849

# G03 (GNSS)
1 40294U 14068A   26187.86550650 -.00000053  00000+0  00000+0 0  9994
2 40294  57.0010  30.1972 0067431  71.2772 289.5066  2.00577397 85608

# G04 (GNSS)
1 43873U 18109A   26188.19764111 -.00000015  00000+0  00000+0 0  9994
2 43873  55.6931  91.3977 0038543 197.4129 334.8050  2.00562549 55475

# G05 (GNSS)
1 35752U 09043A   26188.55759884 -.00000055  00000+0  00000+0 0  9993
2 35752  56.2230  26.6524 0053789  84.0632 270.2495  2.00553170123763

# G06 (GNSS)
1 39741U 14026A   26188.40400502 -.00000069  00000+0  00000+0 0  9991
2 39741  56.4876 330.7309 0038112 326.0053  33.7555  2.00559488 88949

# G07 (GNSS)
1 32711U 08012A   26188.57688300  .00000076  00000+0  00000+0 0  9998
2 32711  54.4995 149.1103 0211606 248.0744 109.6461  2.00572919134163

# G08 (GNSS)
1 40730U 15033A   26187.66634581 -.00000008  00000+0  00000+0 0  9996
2 40730  53.9675 266.2830 0115223  30.2723 330.4556  2.00555284 80385

# G09 (GNSS)
1 40105U 14045A   26187.99719624 -.00000019  00000+0  00000+0 0  9994
2 40105  55.3655  87.6758 0034158 118.3100 242.0738  2.00559717 86474

# G10 (GNSS)
1 41019U 15062A   26188.22016026 -.00000052  00000+0  00000+0 0  9999
2 41019  56.9729  30.0400 0112528 230.9250 128.1184  2.00566969 78230

# G11 (GNSS)
1 48859U 21054A   26188.45135924 -.00000072  00000+0  00000+0 0  9992
2 48859  55.1638 331.6461 0026195 228.4720 132.0146  2.00567664 37166

# G12 (GNSS)
1 29601U 06052A   26188.36200401  .00000097  00000+0  00000+0 0  9996
2 29601  54.9330 213.2064 0084819  90.9745 270.0553  2.00559235143816

# G13 (GNSS)
1 24876U 97035A   26188.14488182 -.00000006  00000+0  00000+0 0  9997
2 24876  56.0046  97.7951 0103428  57.3475 303.6711  2.00563879212351

# G14 (GNSS)
1 46826U 20078A   26188.44572157  .00000100  00000+0  00000+0 0  9992
2 46826  53.9783 209.9572 0074324 207.6315 322.4373  2.00564900 41916

# G15 (GNSS)
1 32260U 07047A   26188.16886757 -.00000030  00000+0  00000+0 0  9996
2 32260  54.1095  79.2421 0167519  87.8093 274.1544  2.00554279137213

# G16 (GNSS)
1 27663U 03005A   26188.06357402  .00000093  00000+0  00000+0 0  9994
2 27663  54.8800 214.1790 0148150  53.1469 318.2156  2.00559479171716

# G17 (GNSS)
1 28874U 05038A   26188.30418039 -.00000017  00000+0  00000+0 0  9995
2 28874  54.8618 272.3651 0128121 296.3215  70.8869  2.00564259152247

# G18 (GNSS)
1 44506U 19056A   26188.58632281 -.00000071  00000+0  00000+0 0  9997
2 44506  55.6263 330.3332 0063098 198.0173 159.0165  2.00569960 50470

# G19 (GNSS)
1 28190U 04009A   26188.33554531 -.00000022  00000+0  00000+0 0  9990
2 28190  54.8128 274.8727 0116918 173.9909 186.4511  2.00554010163352

# G20 (GNSS)
1 26360U 00025A   26188.13204207 -.00000060  00000+0  00000+0 0  9993
2 26360  55.1722  18.5021 0020924 258.4206 282.9113  2.00562481191670

# G21 (GNSS)
1 64202U 25116A   26188.28169900 -.00000056  00000+0  00000+0 0  9999
2 64202  55.2499  30.3230 0008349 339.7972 202.1311  2.00574400  8274

# G22 (GNSS)
1 26407U 00040A   26188.47557698  .00000096  00000+0  00000+0 0  9992
2 26407  54.8494 214.3563 0120687 302.6485 230.0354  2.00557795190356

# G23 (GNSS)
1 45854U 20041A   26187.18030691 -.00000055  00000+0  00000+0 0  9994
2 45854  56.6823  28.2076 0064724 204.5515 154.8185  2.00558250 44410

# G24 (GNSS)
1 38833U 12053A   26188.25885096  .00000066  00000+0  00000+0 0  9994
2 38833  53.5887 142.7772 0181499  66.0832 295.7851  2.00567789 99841

# G25 (GNSS)
1 36585U 10022A   26186.90073374  .00000088  00000+0  00000+0 0  9992
2 36585  54.2692 207.8082 0126545  66.1444 291.3330  2.00563324117962

# G26 (GNSS)
1 40534U 15013A   26188.50529199  .00000105  00000+0  00000+0 0  9995
2 40534  53.1668 203.3372 0110087  40.3058 320.5487  2.00550128 82231

# G27 (GNSS)
1 39166U 13023A   26188.12634727 -.00000010  00000+0  00000+0 0  9991
2 39166  54.4888 268.1608 0141400  51.1024 310.2139  2.00563366 96283

# G28 (GNSS)
1 55268U 23009A   26188.14393455  .00000076  00000+0  00000+0 0  9990
2 55268  55.1244 147.7348 0006221 319.7654 217.2991  2.00570128 25642

# G29 (GNSS)
1 32384U 07062A   26188.48360975 -.00000019  00000+0  00000+0 0  9991
2 32384  55.0155 273.3361 0035995 166.9745 188.0514  2.00561201135910

# G30 (GNSS)
1 39533U 14008A   26188.12815914  .00000076  00000+0  00000+0 0  9993
2 39533  53.6571 148.5066 0084185 231.4975 127.7260  2.00561052 90082

# G31 (GNSS)
1 29486U 06042A   26188.67658139  .00000079  00000+0  00000+0 0  9995
2 29486  54.7126 150.5255 0106975  54.9415 119.9754  2.00568657144807

# G32 (GNSS)
1 41328U 16007A   26188.31188490 -.00000019  00000+0  00000+0 0  9990
2 41328  55.5361  88.6618 0096589 247.6287 111.3827  2.00575770 76240

# C06 (GNSS)
1 36828U 10036A   26188.62304566 -.00000058  00000+0  00000+0 0  9996
2 36828  54.3062 162.7756 0059224 225.1869 229.2421  1.00266308 58302

# C04 (GNSS)
1 37210U 10057A   26188.61485138 -.00000100  00000+0  00000+0 0  9997
2 37210   3.6943  68.8236 0005164 185.9338  52.1315  1.00270800 57496

# C07 (GNSS)
1 37256U 10068A   26188.66540134 -.00000203  00000+0  00000+0 0  9996
2 37256  47.5102 271.5779 0056836 213.5507 148.3457  1.00276167 57007

# C14 (GNSS)
1 38775U 12050B   26188.23508586 -.00000043  00000+0  00000+0 0  9996
2 38775  56.5614  62.2316 0013130   0.5124 359.5520  1.86230940 93687

# C01 (GNSS)
1 44231U 19027A   26188.88659801 -.00000233  00000+0  00000+0 0  9990
2 44231   1.7072  74.5162 0009917 284.7279  30.2695  1.00274660 26282

# C24 (GNSS)
1 43582U 18062B   26188.37493262  .00000119  00000+0  00000+0 0  9999
2 43582  54.0860 181.6071 0005088   9.1977 350.8186  1.86227975 54013

# C26 (GNSS)
1 43602U 18067A   26188.31336324  .00000118  00000+0  00000+0 0  9995
2 43602  54.1816 180.3578 0007908  30.2614 329.7892  1.86227798 53495

# C25 (GNSS)
1 43603U 18067B   26188.44848271  .00000119  00000+0  00000+0 0  9990
2 43603  54.1790 180.3167 0004618  13.4684 346.5491  1.86227306 53527

# C32 (GNSS)
1 43622U 18072A   26187.86626377 -.00000042  00000+0  00000+0 0  9999
2 43622  56.6412  62.0108 0006453 332.0878  27.9414  1.86231573 53022

# C33 (GNSS)
1 43623U 18072B   26187.73170765 -.00000042  00000+0  00000+0 0  9991
2 43623  56.6432  62.0091 0005560   9.9346 350.1406  1.86231254 53011

# C35 (GNSS)
1 43647U 18078A   26188.42370037 -.00000062  00000+0  00000+0 0  9996
2 43647  54.0702 299.2766 0006751  40.2464 319.8292  1.86232245 52536

# C34 (GNSS)
1 43648U 18078B   26187.47907947 -.00000060  00000+0  00000+0 0  9995
2 43648  54.0667 299.3099 0003770  58.5392 301.5247  1.86232415 52534

# C59 (GNSS)
1 43683U 18085A   26188.74686985 -.00000095  00000+0  00000+0 0  9997
2 43683   2.9173  96.8329 0008437 354.4863 263.1952  1.00273488 28269

# C36 (GNSS)
1 43706U 18093A   26188.39538441  .00000119  00000+0  00000+0 0  9992
2 43706  54.1700 181.6109 0010157 293.2280 212.5865  1.86228313 51914

# C37 (GNSS)
1 43707U 18093B   26188.04136145  .00000117  00000+0  00000+0 0  9998
2 43707  54.1709 181.6150 0008066 321.5361  38.4125  1.86226750 51907

# C38 (GNSS)
1 44204U 19023A   26188.39613446 -.00000208  00000+0  00000+0 0  9999
2 44204  58.7230  37.4430 0025584 223.9763 285.4775  1.00285689  7417

# C39 (GNSS)
1 44337U 19035A   26188.81033301 -.00000072  00000+0  00000+0 0  9991
2 44337  55.2504 158.6819 0039633 216.3902 321.3360  1.00260158 25872

# C46 (GNSS)
1 44542U 19061A   26188.64669354  .00000121  00000+0  00000+0 0  9996
2 44542  54.3975 182.0377 0008571 359.1404   0.8665  1.86229361 46170

# C45 (GNSS)
1 44543U 19061B   26188.78283669  .00000121  00000+0  00000+0 0  9993
2 44543  54.3961 182.0018 0005857 339.4265  23.3222  1.86227400 46180

# C44 (GNSS)
1 44793U 19078A   26186.33900275 -.00000058  00000+0  00000+0 0  9996
2 44793  53.9186 299.1896 0005914  49.8831 310.1966  1.86227646 44980

# C43 (GNSS)
1 44794U 19078B   26186.47887781 -.00000058  00000+0  00000+0 0  9998
2 44794  53.8912 299.1453 0003864  48.4464 311.6147  1.86228113 44993

# C41 (GNSS)
1 44864U 19090A   26188.06161581 -.00000043  00000+0  00000+0 0  9994
2 44864  56.5756  62.1346 0017090 297.4421 241.2360  1.86231712 44603
